IRIDIUM 33 DEB          
1 35863U 97051TP  17344.36099062  .00000760  00000-0  20930-3 0  9991
2 35863  86.3471 212.8042 0069723 143.6633 216.9333 14.44112305440165
